{"type":"FeatureCollection","features":[{"type":"Feature","properties":{},"geometry":{"type":"Polygon","coordinates":[[[68.378308,25.458597],[68.378308,25.458597]]]}},{"type":"Feature","properties":{"Sawah":1},"geometry":{"type":"Polygon","coordinates":[[[68.378051,25.458559],[68.378537,25.458648],[68.378222,25.460275],[68.377771,25.460104],[68.377753,25.46008],[68.377915,25.459266],[68.378051,25.458559]]]}},{"type":"Feature","properties":{"sawah":2},"geometry":{"type":"Polygon","coordinates":[[[68.378699,25.460443],[68.379058,25.458791],[68.379529,25.458963],[68.379147,25.460655],[68.378699,25.460443]]]}},{"type":"Feature","properties":{},"geometry":{"type":"Polygon","coordinates":[[[68.387066,25.458624],[68.387145,25.457925],[68.386897,25.457578],[68.387643,25.45745],[68.38788,25.458497],[68.387066,25.458624]]]}},{"type":"Feature","properties":{},"geometry":{"type":"Polygon","coordinates":[[[68.379585,25.460837],[68.379988,25.459052],[68.380466,25.459216],[68.380079,25.461067],[68.379585,25.460837]]]}},{"type":"Feature","properties":{"sawah":4},"geometry":{"type":"Polygon","coordinates":[[[68.380542,25.46124],[68.380681,25.460795],[68.381068,25.46084],[68.380932,25.461402],[68.380542,25.46124]]]}},{"type":"Feature","properties":{"sawah":5},"geometry":{"type":"Polygon","coordinates":[[[68.380812,25.459981],[68.380952,25.459329],[68.381414,25.459438],[68.381238,25.46009],[68.380812,25.459981]]]}},{"type":"Feature","properties":{"sawah":6},"geometry":{"type":"Polygon","coordinates":[[[68.379041,25.458712],[68.379181,25.45806],[68.379633,25.458205],[68.379497,25.458884],[68.379041,25.458712]]]}},{"type":"Feature","properties":{},"geometry":{"type":"Polygon","coordinates":[[[68.379501,25.458843],[68.379501,25.458843]]]}},{"type":"Feature","properties":{"sawah":7},"geometry":{"type":"Polygon","coordinates":[[[68.379543,25.458874],[68.379822,25.457496],[68.380296,25.457622],[68.379982,25.458963],[68.379543,25.458874]]]}},{"type":"Feature","properties":{"sawah ":8},"geometry":{"type":"Polygon","coordinates":[[[68.378106,25.458478],[68.378392,25.457124],[68.378839,25.457238],[68.378504,25.458591],[68.378106,25.458478]]]}},{"type":"Feature","properties":{"sawah":9},"geometry":{"type":"Polygon","coordinates":[[[68.377646,25.458351],[68.377883,25.456991],[68.378336,25.457117],[68.378057,25.458452],[68.377646,25.458351]]]}},{"type":"Feature","properties":{"sawah":10},"geometry":{"type":"Polygon","coordinates":[[[68.376725,25.4581],[68.376956,25.456771],[68.377381,25.456859],[68.37713,25.458175],[68.376725,25.4581]]]}},{"type":"Feature","properties":{},"geometry":{"type":"Polygon","coordinates":[[[68.378089,25.456781],[68.378276,25.45577],[68.378599,25.455797],[68.378366,25.456889],[68.378351,25.456401],[68.378089,25.456781]]]}},{"type":"Feature","properties":{"sawah ":11},"geometry":{"type":"Polygon","coordinates":[[[68.378502,25.456326],[68.378502,25.456326],[68.378502,25.456326],[68.378502,25.456326]]]}},{"type":"Feature","properties":{"sawah":12},"geometry":{"type":"Polygon","coordinates":[[[68.378967,25.456977],[68.379328,25.454997],[68.379733,25.455167],[68.379343,25.457072],[68.378967,25.456977]]]}},{"type":"Feature","properties":{"sawah":13},"geometry":{"type":"Polygon","coordinates":[[[68.379395,25.457167],[68.379786,25.45514],[68.380237,25.455377],[68.379816,25.457215],[68.379395,25.457167]]]}},{"type":"Feature","properties":{"sawah":14},"geometry":{"type":"Polygon","coordinates":[[[68.375982,25.45932],[68.376097,25.458763],[68.376475,25.458852],[68.376377,25.459372],[68.375982,25.45932]]]}},{"type":"Feature","properties":{"sawah`":15},"geometry":{"type":"Polygon","coordinates":[[[68.376919,25.459632],[68.377051,25.459023],[68.377446,25.459135],[68.377289,25.459803],[68.376919,25.459632]]]}},{"type":"Feature","properties":{"sawah":16},"geometry":{"type":"Polygon","coordinates":[[[68.37701,25.458956],[68.377133,25.458333],[68.377561,25.458444],[68.377421,25.459053],[68.37701,25.458956]]]}},{"type":"Feature","properties":{"sawah`":17},"geometry":{"type":"Polygon","coordinates":[[[68.377355,25.459825],[68.377506,25.459167],[68.377888,25.459238],[68.377355,25.459825]]]}},{"type":"Feature","properties":{"sawah":19},"geometry":{"type":"Polygon","coordinates":[[[68.377499,25.459064],[68.377641,25.458457],[68.378002,25.458543],[68.377877,25.459158],[68.377499,25.459064]]]}},{"type":"Feature","properties":{"sawah":20},"geometry":{"type":"Polygon","coordinates":[[[68.376109,25.458637],[68.376219,25.458041],[68.376644,25.458192],[68.376545,25.458742],[68.376109,25.458637]]]}},{"type":"Feature","properties":{"sawah":21},"geometry":{"type":"Polygon","coordinates":[[[68.378278,25.460265],[68.378583,25.458716],[68.378999,25.458812],[68.378657,25.460388],[68.378657,25.460405],[68.378278,25.460265]]]}},{"type":"Feature","properties":{"sawah":22},"geometry":{"type":"Polygon","coordinates":[[[68.379168,25.460643],[68.379573,25.459022],[68.379939,25.459104],[68.379557,25.460781],[68.379168,25.460643]]]}},{"type":"Feature","properties":{"sawah":23},"geometry":{"type":"Polygon","coordinates":[[[68.380108,25.461064],[68.38023,25.46076],[68.380581,25.460809],[68.380108,25.461064]]]}},{"type":"Feature","properties":{"sawah":24},"geometry":{"type":"Polygon","coordinates":[[[68.380222,25.460629],[68.38036,25.460022],[68.38065,25.460043],[68.380559,25.460698],[68.380222,25.460629]]]}},{"type":"Feature","properties":{"sawah":25},"geometry":{"type":"Polygon","coordinates":[[[68.38065,25.460691],[68.380795,25.460084],[68.381155,25.460188],[68.381032,25.460774],[68.38065,25.460691]]]}},{"type":"Feature","properties":{"sawah":26},"geometry":{"type":"Polygon","coordinates":[[[68.380352,25.459898],[68.380505,25.459263],[68.380857,25.459339],[68.38075,25.459974],[68.380352,25.459898]]]}},{"type":"Feature","properties":{"sawah":27},"geometry":{"type":"Polygon","coordinates":[[[68.377182,25.458215],[68.377396,25.456938],[68.377801,25.457014],[68.377587,25.458325],[68.377182,25.458215]]]}},{"type":"Feature","properties":{"sawah":28},"geometry":{"type":"Polygon","coordinates":[[[68.376219,25.458001],[68.376379,25.457325],[68.376746,25.457435],[68.376624,25.45807],[68.376219,25.458001]]]}},{"type":"Feature","properties":{"sawah ":29},"geometry":{"type":"Polygon","coordinates":[[[68.376371,25.457263],[68.376517,25.456711],[68.376861,25.456793],[68.376746,25.457339],[68.376371,25.457263]]]}},{"type":"Feature","properties":{"sawah ":30},"geometry":{"type":"Polygon","coordinates":[[[68.375615,25.458911],[68.375722,25.457945],[68.376135,25.458042],[68.375951,25.459208],[68.375615,25.458911]]]}},{"type":"Feature","properties":{"sawah":31},"geometry":{"type":"Polygon","coordinates":[[[68.375043,25.458762],[68.375196,25.458072],[68.375387,25.457982],[68.375456,25.457906],[68.375647,25.457941],[68.375525,25.458969],[68.375043,25.458762]]]}},{"type":"Feature","properties":{"sawah":32},"geometry":{"type":"Polygon","coordinates":[[[68.373981,25.45852],[68.373981,25.45841],[68.374294,25.45823],[68.375097,25.45812],[68.374998,25.458803],[68.374348,25.458569],[68.373981,25.45852]]]}},{"type":"Feature","properties":{"sawah":33},"geometry":{"type":"Polygon","coordinates":[[[68.375444,25.459474],[68.375551,25.459218],[68.375925,25.45935],[68.375849,25.459688],[68.375444,25.459474]]]}},{"type":"Feature","properties":{"sawah":34},"geometry":{"type":"Polygon","coordinates":[[[68.375887,25.459688],[68.375994,25.459432],[68.376666,25.459688],[68.376521,25.459984],[68.375887,25.459688]]]}},{"type":"Feature","properties":{"sawah":35},"geometry":{"type":"Polygon","coordinates":[[[68.376559,25.459991],[68.376705,25.459722],[68.377408,25.46006],[68.377232,25.460302],[68.376559,25.459991]]]}},{"type":"Feature","properties":{"sawah":36},"geometry":{"type":"Polygon","coordinates":[[[68.377285,25.460274],[68.377446,25.460102],[68.378103,25.460371],[68.377958,25.460626],[68.377285,25.460274]]]}},{"type":"Feature","properties":{"sawah":37},"geometry":{"type":"Polygon","coordinates":[[[68.378019,25.460654],[68.378233,25.460405],[68.378822,25.460716],[68.378684,25.460944],[68.378019,25.460654]]]}},{"type":"Feature","properties":{"sawah":38},"geometry":{"type":"Polygon","coordinates":[[[68.378783,25.460944],[68.378906,25.460709],[68.379403,25.46093],[68.379288,25.461171],[68.378783,25.460944]]]}},{"type":"Feature","properties":{"sawah":39},"geometry":{"type":"Polygon","coordinates":[[[68.379311,25.461178],[68.379441,25.460985],[68.379983,25.461185],[68.379823,25.46144],[68.379311,25.461178]]]}},{"type":"Feature","properties":{"sawah":40},"geometry":{"type":"Polygon","coordinates":[[[68.377844,25.462884],[68.378501,25.461076],[68.379579,25.461476],[68.378134,25.463043],[68.377844,25.462884]]]}},{"type":"Feature","properties":{"sawah":41},"geometry":{"type":"Polygon","coordinates":[[[68.377095,25.463194],[68.377125,25.463028],[68.377706,25.462952],[68.378042,25.463125],[68.377859,25.463442],[68.377095,25.463194]]]}},{"type":"Feature","properties":{"sawah":42},"geometry":{"type":"Polygon","coordinates":[[[68.377034,25.463442],[68.377064,25.463249],[68.377813,25.463504],[68.377691,25.463698],[68.377034,25.463442]]]}},{"type":"Feature","properties":{"sawah":43},"geometry":{"type":"Polygon","coordinates":[[[68.376911,25.463684],[68.37698,25.463511],[68.377683,25.463787],[68.377553,25.46398],[68.376911,25.463684]]]}},{"type":"Feature","properties":{"sawah":44},"geometry":{"type":"Polygon","coordinates":[[[68.376789,25.463953],[68.376865,25.463773],[68.3775,25.464036],[68.377385,25.464229],[68.376789,25.463953]]]}},{"type":"Feature","properties":{"sawah":45},"geometry":{"type":"Polygon","coordinates":[[[68.376651,25.464353],[68.376766,25.464036],[68.377362,25.464305],[68.377202,25.464567],[68.376651,25.464353]]]}},{"type":"Feature","properties":{"sawah":46},"geometry":{"type":"Polygon","coordinates":[[[68.373677,25.462744],[68.373993,25.462507],[68.374074,25.462592],[68.373805,25.462871],[68.373677,25.462744]]]}},{"type":"Feature","properties":{"sawah":47},"geometry":{"type":"Polygon","coordinates":[[[68.376448,25.462835],[68.376737,25.461882],[68.377429,25.462021],[68.37708,25.462962],[68.376448,25.462835]]]}},{"type":"Feature","properties":{"sawah":48},"geometry":{"type":"Polygon","coordinates":[[[68.375903,25.462288],[68.376279,25.461621],[68.376595,25.461809],[68.37638,25.462398],[68.375903,25.462288]]]}},{"type":"Feature","properties":{"sawah":49},"geometry":{"type":"Polygon","coordinates":[[[68.375829,25.462549],[68.375889,25.462373],[68.376347,25.462513],[68.375829,25.462549]]]}},{"type":"Feature","properties":{"sawah":50},"geometry":{"type":"Polygon","coordinates":[[[68.375768,25.462738],[68.375795,25.462604],[68.37636,25.462762],[68.376279,25.462999],[68.375768,25.462738]]]}},{"type":"Feature","properties":{"building":1},"geometry":{"type":"Polygon","coordinates":[[[68.377194,25.440933],[68.377316,25.44062],[68.377608,25.440816],[68.377471,25.441042],[68.377194,25.440933]]]}},{"type":"Feature","properties":{"buidling":2},"geometry":{"type":"Polygon","coordinates":[[[68.377471,25.440656],[68.377577,25.440426],[68.377779,25.440554],[68.377666,25.440715],[68.377471,25.440656]]]}},{"type":"Feature","properties":{"building":3},"geometry":{"type":"Polygon","coordinates":[[[68.377708,25.440935],[68.377779,25.440726],[68.377999,25.44086],[68.377933,25.441042],[68.377708,25.440935]]]}},{"type":"Feature","properties":{"building":4},"geometry":{"type":"Polygon","coordinates":[[[68.377907,25.440754],[68.377937,25.440625],[68.378061,25.44069],[68.378031,25.440823],[68.377907,25.440754]]]}},{"type":"Feature","properties":{"building":5},"geometry":{"type":"Polygon","coordinates":[[[68.378061,25.440957],[68.37818,25.440722],[68.378506,25.440829],[68.378388,25.441],[68.378061,25.440957]]]}},{"type":"Feature","properties":{"building":6},"geometry":{"type":"Polygon","coordinates":[[[68.378192,25.440711],[68.378233,25.440539],[68.378542,25.440668],[68.378512,25.440797],[68.378192,25.440711]]]}},{"type":"Feature","properties":{"building":7},"geometry":{"type":"Polygon","coordinates":[[[68.378269,25.440502],[68.378322,25.440325],[68.378625,25.440448],[68.378566,25.440625],[68.378269,25.440502]]]}},{"type":"Feature","properties":{"building":8},"geometry":{"type":"Polygon","coordinates":[[[68.378352,25.440261],[68.378459,25.439982],[68.378779,25.440063],[68.378655,25.440352],[68.378352,25.440261]]]}},{"type":"Feature","properties":{"building":9},"geometry":{"type":"Polygon","coordinates":[[[68.3778,25.440604],[68.377812,25.440497],[68.378156,25.440614],[68.378061,25.44069],[68.3778,25.440604]]]}},{"type":"Feature","properties":{"building":10},"geometry":{"type":"Polygon","coordinates":[[[68.377675,25.440186],[68.377865,25.439768],[68.378031,25.439843],[68.377871,25.440255],[68.377675,25.440186]]]}},{"type":"Feature","properties":{"building":11},"geometry":{"type":"Polygon","coordinates":[[[68.378672,25.440593],[68.378744,25.440438],[68.379135,25.440561],[68.379058,25.440754],[68.378672,25.440593]]]}},{"type":"Feature","properties":{"building":12},"geometry":{"type":"Polygon","coordinates":[[[68.379236,25.440384],[68.379272,25.440282],[68.379604,25.440416],[68.379236,25.440384]]]}},{"type":"Feature","properties":{"building":13},"geometry":{"type":"Polygon","coordinates":[[[68.379017,25.440904],[68.379147,25.440652],[68.379438,25.440802],[68.379331,25.44099],[68.379017,25.440904]]]}},{"type":"Feature","properties":{"building":14},"geometry":{"type":"Polygon","coordinates":[[[68.379663,25.440588],[68.379705,25.440454],[68.380055,25.440556],[68.379942,25.440663],[68.379663,25.440588]]]}},{"type":"Feature","properties":{"building":15},"geometry":{"type":"Polygon","coordinates":[[[68.37977,25.440384],[68.379806,25.44017],[68.380286,25.440288],[68.380174,25.440491],[68.37977,25.440384]]]}},{"type":"Feature","properties":{"building":16},"geometry":{"type":"Polygon","coordinates":[[[68.379361,25.440159],[68.379598,25.43957],[68.379942,25.439655],[68.379681,25.44025],[68.379361,25.440159]]]}},{"type":"Feature","properties":{"building":17},"geometry":{"type":"Polygon","coordinates":[[[68.378536,25.439762],[68.378595,25.439532],[68.378987,25.43965],[68.378833,25.439945],[68.378536,25.439762]]]}},{"type":"Feature","properties":{"building":18},"geometry":{"type":"Polygon","coordinates":[[[68.378767,25.439291],[68.378856,25.439012],[68.379159,25.43913],[68.378993,25.439425],[68.378767,25.439291]]]}},{"type":"Feature","properties":{"building":19},"geometry":{"type":"Polygon","coordinates":[[[68.379111,25.439425],[68.379218,25.439184],[68.379568,25.439291],[68.379396,25.439618],[68.379111,25.439425]]]}},{"type":"Feature","properties":{"building":20},"geometry":{"type":"Polygon","coordinates":[[[68.378969,25.439827],[68.379135,25.439553],[68.37945,25.439655],[68.379289,25.439929],[68.378969,25.439827]]]}},{"type":"Feature","properties":{"building":21},"geometry":{"type":"Polygon","coordinates":[[[68.37812,25.439741],[68.378269,25.439495],[68.378447,25.43957],[68.378494,25.439835],[68.37812,25.439741]]]}},{"type":"Feature","properties":{"building":22},"geometry":{"type":"Polygon","coordinates":[[[68.377913,25.440361],[68.378055,25.440007],[68.378316,25.440071],[68.378144,25.440436],[68.377913,25.440361]]]}},{"type":"Feature","properties":{"building":23},"geometry":{"type":"Polygon","coordinates":[[[68.377717,25.439535],[68.377937,25.439133],[68.378204,25.43915],[68.378073,25.439653],[68.377717,25.439535]]]}},{"type":"Feature","properties":{"building":24},"geometry":{"type":"Polygon","coordinates":[[[68.378257,25.439444],[68.378322,25.439257],[68.378666,25.43938],[68.378536,25.439551],[68.378257,25.439444]]]}},{"type":"Feature","properties":{"building":25},"geometry":{"type":"Polygon","coordinates":[[[68.37837,25.439192],[68.378488,25.438882],[68.378749,25.439048],[68.378571,25.439305],[68.37837,25.439192]]]}},{"type":"Feature","properties":{"building":26},"geometry":{"type":"Polygon","coordinates":[[[68.378146,25.438567],[68.378235,25.438283],[68.378472,25.438412],[68.37833,25.438615],[68.378146,25.438567]]]}},{"type":"Feature","properties":{"building":27},"geometry":{"type":"Polygon","coordinates":[[[68.37862,25.438664],[68.378751,25.438315],[68.378965,25.438465],[68.378828,25.43876],[68.37862,25.438664]]]}},{"type":"Feature","properties":{"building":28},"geometry":{"type":"Polygon","coordinates":[[[68.378923,25.438835],[68.379012,25.438551],[68.379309,25.438717],[68.379196,25.438974],[68.378923,25.438835]]]}},{"type":"Feature","properties":{"building":29},"geometry":{"type":"Polygon","coordinates":[[[68.379089,25.438498],[68.379148,25.438262],[68.379415,25.438326],[68.379338,25.438658],[68.379089,25.438498]]]}},{"type":"Feature","properties":{"building":30},"geometry":{"type":"Polygon","coordinates":[[[68.379297,25.439001],[68.379457,25.439071],[68.379605,25.439114],[68.379356,25.438707],[68.37976,25.43883],[68.379297,25.439001]]]}},{"type":"Feature","properties":{"building":31},"geometry":{"type":"Polygon","coordinates":[[[68.379427,25.43868],[68.379605,25.43839],[68.379872,25.438487],[68.379766,25.438755],[68.379427,25.43868]]]}},{"type":"Feature","properties":{"building":32},"geometry":{"type":"Polygon","coordinates":[[[68.37884,25.438005],[68.379036,25.437651],[68.379226,25.437785],[68.379095,25.438074],[68.37884,25.438005]]]}},{"type":"Feature","properties":{"building":33},"geometry":{"type":"Polygon","coordinates":[[[68.379226,25.43809],[68.379344,25.437769],[68.379641,25.437844],[68.379226,25.43809]]]}},{"type":"Feature","properties":{"building":34},"geometry":{"type":"Polygon","coordinates":[[[68.378283,25.438261],[68.378538,25.437977],[68.378574,25.438036],[68.378449,25.438368],[68.378283,25.438261]]]}},{"type":"Feature","properties":{"building":35},"geometry":{"type":"Polygon","coordinates":[[[68.37852,25.437838],[68.378603,25.43758],[68.378924,25.437709],[68.37852,25.437838]]]}},{"type":"Feature","properties":{"building":36},"geometry":{"type":"Polygon","coordinates":[[[68.379404,25.43758],[68.379499,25.437334],[68.379838,25.437452],[68.379761,25.437698],[68.379404,25.43758]]]}},{"type":"Feature","properties":{"building":37},"geometry":{"type":"Polygon","coordinates":[[[68.379013,25.437586],[68.379096,25.437403],[68.379256,25.437318],[68.379404,25.437387],[68.379256,25.437655],[68.379013,25.437586]]]}},{"type":"Feature","properties":{"building":37},"geometry":{"type":"Polygon","coordinates":[[[68.382757,25.43766],[68.382627,25.437392],[68.382923,25.437328],[68.382977,25.437671],[68.382757,25.43766]]]}},{"type":"Feature","properties":{"building":38},"geometry":{"type":"Polygon","coordinates":[[[68.382668,25.437323],[68.382561,25.437039],[68.382763,25.436883],[68.382918,25.437269],[68.382668,25.437323]]]}},{"type":"Feature","properties":{"building":39},"geometry":{"type":"Polygon","coordinates":[[[68.382146,25.437564],[68.382039,25.437119],[68.382431,25.437017],[68.382567,25.437499],[68.382146,25.437564]]]}},{"type":"Feature","properties":{"building":40},"geometry":{"type":"Polygon","coordinates":[[[68.381808,25.437682],[68.381749,25.437376],[68.381933,25.437392],[68.382027,25.437612],[68.381808,25.437682]]]}},{"type":"Feature","properties":{"building":41},"geometry":{"type":"Polygon","coordinates":[[[68.381944,25.438094],[68.381808,25.437725],[68.38198,25.437703],[68.382087,25.438051],[68.381944,25.438094]]]}},{"type":"Feature","properties":{"building":42},"geometry":{"type":"Polygon","coordinates":[[[68.38249,25.438668],[68.382419,25.438544],[68.382621,25.438636],[68.38249,25.438668]]]}},{"type":"Feature","properties":{"building":44},"geometry":{"type":"Polygon","coordinates":[[[68.381974,25.438619],[68.38179,25.438368],[68.382164,25.438276],[68.381974,25.438619]]]}},{"type":"Feature","properties":{"building":45},"geometry":{"type":"Polygon","coordinates":[[[68.38106,25.438019],[68.380977,25.437575],[68.381268,25.437746],[68.381286,25.438035],[68.38106,25.438019]]]}},{"type":"Feature","properties":{"building":46},"geometry":{"type":"Polygon","coordinates":[[[68.381292,25.437671],[68.38109,25.437355],[68.381327,25.437232],[68.381476,25.437639],[68.381292,25.437671]]]}},{"type":"Feature","properties":{"building":46},"geometry":{"type":"Polygon","coordinates":[[[68.380591,25.438175],[68.380769,25.437607],[68.380947,25.438116],[68.380591,25.438175]]]}},{"type":"Feature","properties":{"building":47},"geometry":{"type":"Polygon","coordinates":[[[68.380307,25.436696],[68.380235,25.436535],[68.380396,25.43638],[68.380544,25.436572],[68.380307,25.436696]]]}},{"type":"Feature","properties":{"building":48},"geometry":{"type":"Polygon","coordinates":[[[68.382318,25.438475],[68.382253,25.438175],[68.38249,25.438159],[68.382544,25.438416],[68.382318,25.438475]]]}},{"type":"Feature","properties":{"building":49},"geometry":{"type":"Polygon","coordinates":[[[68.376532,25.440729],[68.376437,25.440638],[68.376603,25.440552],[68.376769,25.440595],[68.376532,25.440729]]]}},{"type":"Feature","properties":{"building":50},"geometry":{"type":"Polygon","coordinates":[[[68.37614,25.440493],[68.375772,25.440145],[68.376093,25.440022],[68.376366,25.440209],[68.37614,25.440493]]]}},{"type":"Feature","properties":{"building":51},"geometry":{"type":"Polygon","coordinates":[[[68.376568,25.440697],[68.376206,25.441029],[68.37601,25.440852],[68.376295,25.440595],[68.376568,25.440697]]]}}]}